$$SOE
2460154.500000000, A.D. 2023-Jul-29 00:00:00.0000, -2.522134838049079E+08, -2.598945619867799E+08, 1.439278350798632E+07,
2460161.500000000, A.D. 2023-Aug-05 00:00:00.0000, -2.447983933354164E+08, -2.687931239763242E+08, 1.477166954314026E+07,
2460168.500000000, A.D. 2023-Aug-12 00:00:00.0000, -2.371366692628136E+08, -2.774208621040941E+08, 1.513567294828238E+07,
2460175.500000000, A.D. 2023-Aug-19 00:00:00.0000, -2.292387980557632E+08, -2.857723172107625E+08, 1.548460341920216E+07,
2460182.500000000, A.D. 2023-Aug-26 00:00:00.0000, -2.211152680707628E+08, -2.938424391803803E+08, 1.581829045859902E+07,
2460189.500000000, A.D. 2023-Sep-02 00:00:00.0000, -2.127765555190706E+08, -3.016265752688896E+08, 1.613658271253107E+07,
2460196.500000000, A.D. 2023-Sep-09 00:00:00.0000, -2.042331115363065E+08, -3.091204583882896E+08, 1.643934729584889E+07,
2460203.500000000, A.D. 2023-Sep-16 00:00:00.0000, -1.954953501417462E+08, -3.163201954742012E+08, 1.672646908964700E+07,
2460210.500000000, A.D. 2023-Sep-23 00:00:00.0000, -1.865736366241975E+08, -3.232222557129955E+08, 1.699784999881183E+07,
2460217.500000000, A.D. 2023-Sep-30 00:00:00.0000, -1.774782766459093E+08, -3.298234574937922E+08, 1.725340830061468E+07,
2460224.500000000, A.D. 2023-Oct-07 00:00:00.0000, -1.682195083684995E+08, -3.361209546773196E+08, 1.749307825791754E+07,
2460231.500000000, A.D. 2023-Oct-14 00:00:00.0000, -1.588074965104908E+08, -3.421122255397270E+08, 1.771680963255213E+07,
2460238.500000000, A.D. 2023-Oct-21 00:00:00.0000, -1.492523250592586E+08, -3.477950628305157E+08, 1.792456693554348E+07,
2460245.500000000, A.D. 2023-Oct-28 00:00:00.0000, -1.395639900147623E+08, -3.531675627202554E+08, 1.811632873140013E+07,
2460252.500000000, A.D. 2023-Nov-04 00:00:00.0000, -1.297523933682881E+08, -3.582281134376168E+08, 1.829208704971179E+07,
2460259.500000000, A.D. 2023-Nov-11 00:00:00.0000, -1.198273380921456E+08, -3.629753842196129E+08, 1.845184683987527E+07,
2460266.500000000, A.D. 2023-Nov-18 00:00:00.0000, -1.097985238747439E+08, -3.674083146594529E+08, 1.859562544428271E+07,
2460273.500000000, A.D. 2023-Nov-25 00:00:00.0000, -9.967554348307905E+07, -3.715261044471320E+08, 1.872345208564579E+07,
2460280.500000000, A.D. 2023-Dec-02 00:00:00.0000, -8.946787968147960E+07, -3.753282035297272E+08, 1.883536736552745E+07,
2460287.500000000, A.D. 2023-Dec-09 00:00:00.0000, -7.918490258842705E+07, -3.788143027632318E+08, 1.893142276272252E+07,
2460294.500000000, A.D. 2023-Dec-16 00:00:00.0000, -6.883586714551714E+07, -3.819843250528787E+08, 1.901168010652912E+07,
2460301.500000000, A.D. 2023-Dec-23 00:00:00.0000, -5.842991031326979E+07, -3.848384163010435E+08, 1.907621104923333E+07,
2460308.500000000, A.D. 2023-Dec-30 00:00:00.0000, -4.797604929867427E+07, -3.873769351169885E+08, 1.912509674627869E+07,
2460315.500000000, A.D. 2024-Jan-06 00:00:00.0000, -3.748318255237030E+07, -3.896004436497983E+08, 1.915842771317953E+07,
2460322.500000000, A.D. 2024-Jan-13 00:00:00.0000, -2.696009032897251E+07, -3.915097013520173E+08, 1.917630341983783E+07,
2460329.500000000, A.D. 2024-Jan-20 00:00:00.0000, -1.641543355579579E+07, -3.931056585910096E+08, 1.917883176178643E+07,
2460336.500000000, A.D. 2024-Jan-27 00:00:00.0000, -5.857753010208280E+06, -3.943894494557489E+08, 1.916612864751448E+07,
2460343.500000000, A.D. 2024-Feb-03 00:00:00.0000, 4.704530792678610E+06, -3.953623847056137E+08, 1.913831766333263E+07,
2460350.500000000, A.D. 2024-Feb-10 00:00:00.0000, 1.526311730391020E+07, -3.960259451488696E+08, 1.909552976619214E+07,
2460357.500000000, A.D. 2024-Feb-17 00:00:00.0000, 2.580982539721347E+07, -3.963817754375501E+08, 1.903790299189931E+07,
2460364.500000000, A.D. 2024-Feb-24 00:00:00.0000, 3.633659263498297E+07, -3.964316782561737E+08, 1.896558217589457E+07,
2460371.500000000, A.D. 2024-Mar-02 00:00:00.0000, 4.683547439368367E+07, -3.961776089273802E+08, 1.887871868027227E+07,
2460378.500000000, A.D. 2024-Mar-09 00:00:00.0000, 5.729864300834456E+07, -3.956216704877684E+08, 1.877747010798675E+07,
2460385.500000000, A.D. 2024-Mar-16 00:00:00.0000, 6.771838735241805E+07, -3.947661090284376E+08, 1.866199998300967E+07,
2460392.500000000, A.D. 2024-Mar-23 00:00:00.0000, 7.808711276950946E+07, -3.936133081853447E+08, 1.853247749622774E+07,
2460399.500000000, A.D. 2024-Mar-30 00:00:00.0000, 8.839733913340439E+07, -3.921657828018303E+08, 1.838907752062866E+07,
2460406.500000000, A.D. 2024-Apr-06 00:00:00.0000, 9.864169730740939E+07, -3.904261751254040E+08, 1.823198059689654E+07,
2460413.500000000, A.D. 2024-Apr-13 00:00:00.0000, 1.088129275678824E+08, -3.883972526963943E+08, 1.806137263169979E+07,
2460420.500000000, A.D. 2024-Apr-20 00:00:00.0000, 1.189038790521979E+08, -3.860819052457395E+08, 1.787744461452913E+07,
2460427.500000000, A.D. 2024-Apr-27 00:00:00.0000, 1.289075087255225E+08, -3.834831411557079E+08, 1.768039244602750E+07,
2460434.500000000, A.D. 2024-May-04 00:00:00.0000, 1.388168799654642E+08, -3.806040841783780E+08, 1.747041681182662E+07,
2460441.500000000, A.D. 2024-May-11 00:00:00.0000, 1.486251610137110E+08, -3.774479705051167E+08, 1.724772307128589E+07,
2460448.500000000, A.D. 2024-May-18 00:00:00.0000, 1.583256233866903E+08, -3.740181461568991E+08, 1.701252115496312E+07,
2460455.500000000, A.D. 2024-May-25 00:00:00.0000, 1.679116402794814E+08, -3.703180646937503E+08, 1.676502546749265E+07,
2460462.500000000, A.D. 2024-Jun-01 00:00:00.0000, 1.773766850325444E+08, -3.663512852919935E+08, 1.650545478525950E+07,
2460469.500000000, A.D. 2024-Jun-08 00:00:00.0000, 1.867143299176777E+08, -3.621214712048482E+08, 1.623403212426937E+07,
2460476.500000000, A.D. 2024-Jun-15 00:00:00.0000, 1.959182456521375E+08, -3.576323880556831E+08, 1.595098458630398E+07,
2460483.500000000, A.D. 2024-Jun-22 00:00:00.0000, 2.049822006434485E+08, -3.528879007837493E+08, 1.565654337178765E+07,
2460490.500000000, A.D. 2024-Jun-29 00:00:00.0000, 2.139000578493540E+08, -3.478919710565931E+08, 1.535094400496963E+07,
2460497.500000000, A.D. 2024-Jul-06 00:00:00.0000, 2.226657719040704E+08, -3.426486576119620E+08, 1.503442632637069E+07,
2460504.500000000, A.D. 2024-Jul-13 00:00:00.0000, 2.312733884674026E+08, -3.371621166982749E+08, 1.470723430418742E+07,
2460511.500000000, A.D. 2024-Jul-20 00:00:00.0000, 2.397170438177691E+08, -3.314366014597426E+08, 1.436961594051321E+07,
2460518.500000000, A.D. 2024-Jul-27 00:00:00.0000, 2.479909640386651E+08, -3.254764612198043E+08, 1.402182325381321E+07,
2460525.500000000, A.D. 2024-Aug-03 00:00:00.0000, 2.560894640767459E+08, -3.192861410311037E+08, 1.366411228149003E+07,
2460532.500000000, A.D. 2024-Aug-10 00:00:00.0000, 2.640069468428763E+08, -3.128701814893184E+08, 1.329674308642447E+07,
2460539.500000000, A.D. 2024-Aug-17 00:00:00.0000, 2.717379024094990E+08, -3.062332187820154E+08, 1.291997976436372E+07,
2460546.500000000, A.D. 2024-Aug-24 00:00:00.0000, 2.792769073384171E+08, -2.993799849878309E+08, 1.253409044715561E+07,
2460553.500000000, A.D. 2024-Aug-31 00:00:00.0000, 2.866186242613431E+08, -2.923153086805357E+08, 1.213934728552274E+07,
2460560.500000000, A.D. 2024-Sep-07 00:00:00.0000, 2.937578020866881E+08, -2.850441157055299E+08, 1.173602638770205E+07,
2460567.500000000, A.D. 2024-Sep-14 00:00:00.0000, 3.006892769266328E+08, -2.775714291291963E+08, 1.132440778742124E+07,
2460574.500000000, A.D. 2024-Sep-21 00:00:00.0000, 3.074079717228469E+08, -2.699023679464380E+08, 1.090477566091692E+07,
2460581.500000000, A.D. 2024-Sep-28 00:00:00.0000, 3.139088940877739E+08, -2.620421477698398E+08, 1.047741857333133E+07,
2460588.500000000, A.D. 2024-Oct-05 00:00:00.0000, 3.201871360358455E+08, -2.539960834917597E+08, 1.004262941724980E+07,
2460595.500000000, A.D. 2024-Oct-12 00:00:00.0000, 3.262378752510962E+08, -2.457695909330558E+08, 9.600705319606453E+06,
2460602.500000000, A.D. 2024-Oct-19 00:00:00.0000, 3.320563761478921E+08, -2.373681877444701E+08, 9.151947655257285E+06,
2460609.500000000, A.D. 2024-Oct-26 00:00:00.0000, 3.376379906994585E+08, -2.287974943573617E+08, 8.696662104504898E+06,
2460616.500000000, A.D. 2024-Nov-02 00:00:00.0000, 3.429781592978885E+08, -2.200632351272563E+08, 8.235158718580037E+06,
2460623.500000000, A.D. 2024-Nov-09 00:00:00.0000, 3.480724117475051E+08, -2.111712396440305E+08, 7.767751985511437E+06,
2460630.500000000, A.D. 2024-Nov-16 00:00:00.0000, 3.529163684216546E+08, -2.021274442016159E+08, 7.294760893417537E+06,
2460637.500000000, A.D. 2024-Nov-23 00:00:00.0000, 3.575057416338118E+08, -1.929378934681716E+08, 6.816508982022256E+06,
2460644.500000000, A.D. 2024-Nov-30 00:00:00.0000, 3.618363374368006E+08, -1.836087423883004E+08, 6.333324358986706E+06,
2460651.500000000, A.D. 2024-Dec-07 00:00:00.0000, 3.659040582790735E+08, -1.741462578851580E+08, 5.845539676620059E+06,
2460658.500000000, A.D. 2024-Dec-14 00:00:00.0000, 3.697049058435571E+08, -1.645568191304031E+08, 5.353492232582211E+06,
2460665.500000000, A.D. 2024-Dec-21 00:00:00.0000, 3.732349817638857E+08, -1.548469176192427E+08, 4.857524306295589E+06,
2460672.500000000, A.D. 2024-Dec-28 00:00:00.0000, 3.764904881980699E+08, -1.450231600130443E+08, 4.357983307330959E+06,
2460679.500000000, A.D. 2025-Jan-04 00:00:00.0000, 3.794677308627062E+08, -1.350922713641809E+08, 3.855221691165321E+06,
2460686.500000000, A.D. 2025-Jan-11 00:00:00.0000, 3.821631227145460E+08, -1.250610970530322E+08, 3.349596944658771E+06,
2460693.500000000, A.D. 2025-Jan-18 00:00:00.0000, 3.845731873713262E+08, -1.149366043455234E+08, 2.841471649946451E+06,
2460700.500000000, A.D. 2025-Jan-25 00:00:00.0000, 3.866945625241298E+08, -1.047258840344350E+08, 2.331213565238684E+06,
2460707.500000000, A.D. 2025-Feb-01 00:00:00.0000, 3.885240035397722E+08, -9.443615218233261E+07, 1.819195702265780E+06,
2460714.500000000, A.D. 2025-Feb-08 00:00:00.0000, 3.900583873209950E+08, -8.407475193334441E+07, 1.305796396170277E+06,
2460721.500000000, A.D. 2025-Feb-15 00:00:00.0000, 3.912947164629966E+08, -7.364915540005970E+07, 7.913993630621396E+05,
$$EOE